NORAD_CAT_ID,OBJECT_NAME,OBJECT_TYPE,EPOCH,MEAN_MOTION,ECCENTRICITY,INCLINATION,RA_OF_ASC_NODE,ARG_OF_PERICENTER,MEAN_ANOMALY,BSTAR,MEAN_MOTION_DOT,MEAN_MOTION_DDOT,TLE_LINE0,TLE_LINE1,TLE_LINE2,SEMIMAJOR_AXIS,PERIOD,APOGEE,PERIGEE,DECAYED
49761.0,STARLINK-3203,PAYLOAD,2022-04-02 22:00:01,15.11997857,0.0001751999999999,53.2173,109.0907,51.9956,147.8907,-0.029739,-0.00487994,0.0,0 STARLINK-3203,1 49761U 21115AP  22092.91668981 -.00487994  00000-0 -29739-1 0  9994,2 49761  53.2173 109.0907 0001752  51.9956 147.8907 15.11997857 19870,6908.245,95.238,531.32,528.9,0.0
49761.0,STARLINK-3203,PAYLOAD,2022-04-03 06:00:00,15.11537524,0.0001581,53.2177,107.5843,73.4126,141.6666,-0.030739,-0.00497392,0.0,0 STARLINK-3203,1 49761U 21115AP  22093.25001157 -.00497392  00000-0 -30739-1 0  9993,2 49761  53.2177 107.5843 0001581  73.4126 141.6666 15.11537524 19925,6909.647,95.267,532.605,530.42,0.0
49761.0,STARLINK-3203,PAYLOAD,2022-04-03 14:00:01,15.11190777,0.0001445,53.2171,106.0766,70.9147,158.7998,-0.041855,-0.0066533,0.0,0 STARLINK-3203,1 49761U 21115AP  22093.58334491 -.00665330  00000-0 -41855-1 0  9999,2 49761  53.2171 106.0766 0001445  70.9147 158.7998 15.11190777 19989,6910.704000000002,95.289,533.568,531.571,0.0
49761.0,STARLINK-3203,PAYLOAD,2022-04-03 22:00:00,15.10723091,0.0001501,53.2172,104.5694,63.0204,180.8336,-0.042311,-0.00663978,0.0,0 STARLINK-3203,1 49761U 21115AP  22093.91667824 -.00663978  00000-0 -42311-1 0  9999,2 49761  53.2172 104.5694 0001501  63.0204 180.8336 15.10723091  3630,6912.130999999999,95.319,535.033,532.9580000000002,0.0
49761.0,STARLINK-3203,PAYLOAD,2022-04-04 14:00:01,15.09791892,0.0001382,53.2171,101.5635,73.6444,196.8016,-0.043627,-0.00666969,0.0,0 STARLINK-3203,1 49761U 21115AP  22094.58334491 -.00666969  00000-0 -43627-1 0  9998,2 49761  53.2171 101.5635 0001382  73.6444 196.8016 15.09791892  3646,6914.972,95.377,537.793,535.882,0.0
49761.0,STARLINK-3203,PAYLOAD,2022-04-04 22:00:00,15.09276501,0.0001479,53.2172,100.0611,61.1167,221.7958,-0.035922,-0.0054297,0.0,0 STARLINK-3203,1 49761U 21115AP  22094.91667824 -.00542970  00000-0 -35922-1 0  9998,2 49761  53.2172 100.0611 0001479  61.1167 221.7958 15.09276501  3644,6916.547,95.41,539.434,537.389,0.0
49761.0,STARLINK-3203,PAYLOAD,2022-04-05 00:00:00,15.09103329,0.0001469,53.2174,99.6865,62.0577,313.8899,-0.023875,-0.00364107,0.0,0 STARLINK-3203,1 49761U 21115AP  22095.00001157 -.00364107  00000-0 -23875-1 0  9998,2 49761  53.2174  99.6865 0001469  62.0577 313.8899 15.09103329 20197,6917.076,95.421,539.957,537.924,0.0
49761.0,STARLINK-3203,PAYLOAD,2022-04-05 06:00:00,15.08783692,0.000165,53.2175,98.5733,51.8025,243.0585,0.0033361,0.00053124,0.0,0 STARLINK-3203,1 49761U 21115AP  22095.25001157  .00053124  00000-0  33361-2 0  9999,2 49761  53.2175  98.5733 0001650  51.8025 243.0585 15.08783692 20233,6918.053000000001,95.441,541.059,538.776,0.0
49761.0,STARLINK-3203,PAYLOAD,2022-04-05 14:00:01,15.08848427,0.0001505,53.2174,97.0789,49.0158,257.4556,-0.0012228,-0.00019701,0.0,0 STARLINK-3203,1 49761U 21115AP  22095.58335648 -.00019701  00000-0 -12228-2 0  9994,2 49761  53.2174  97.0789 0001505  49.0158 257.4556 15.08848427  3597,6917.855,95.437,540.761,538.678,0.0
49761.0,STARLINK-3203,PAYLOAD,2022-04-05 22:00:00,15.08819988,0.0001431,53.2177,95.5811,57.4717,260.5396,0.0028747,0.00045735,0.0,0 STARLINK-3203,1 49761U 21115AP  22095.91667824  .00045735  00000-0  28747-2 0  9992,2 49761  53.2177  95.5811 0001431  57.4717 260.5396 15.08819988  3644,6917.941999999999,95.439,540.797,538.817,0.0
49761.0,STARLINK-3203,PAYLOAD,2022-04-06 06:00:02,15.08860401,0.0001613,53.218,94.0864,52.9323,276.7491,-0.00053592,-8.812e-05,0.0,0 STARLINK-3203,1 49761U 21115AP  22096.25002315 -.00008812  00000-0 -53592-3 0  9992,2 49761  53.2180  94.0864 0001613  52.9323 276.7491 15.08860401 20386,6917.818,95.436,540.799,538.567,0.0
49761.0,STARLINK-3203,PAYLOAD,2022-04-06 14:00:01,15.08887311,0.0001639,53.218,92.5899,50.6148,290.6092,-0.0041883999999999,-0.00066418,0.0,0 STARLINK-3203,1 49761U 21115AP  22096.58334491 -.00066418  00000-0 -41884-2 0  9997,2 49761  53.2180  92.5899 0001639  50.6148 290.6092 15.08887311  3635,6917.736,95.435,540.735,538.467,0.0
49761.0,STARLINK-3203,PAYLOAD,2022-04-06 22:00:00,15.08822603,0.0001625,53.2185,91.0922,60.3138,292.5432,0.0031289,0.00049837,0.0,0 STARLINK-3203,1 49761U 21115AP  22096.91667824  .00049837  00000-0  31289-2 0  9995,2 49761  53.2185  91.0922 0001625  60.3138 292.5432 15.08822603  3590,6917.934,95.439,540.923,538.674,0.0
49761.0,STARLINK-3203,PAYLOAD,2022-04-07 14:00:01,15.08872557,0.0001706,53.2187,88.1009,52.2663,323.7886,-0.0040209,-0.00063772,0.0,0 STARLINK-3203,1 49761U 21115AP  22097.58334491 -.00063772  00000-0 -40209-2 0  9998,2 49761  53.2187  88.1009 0001706  52.2663 323.7886 15.08872557  3636,6917.781,95.435,540.826,538.466,0.0
49761.0,STARLINK-3203,PAYLOAD,2022-04-07 20:00:01,15.08813313,0.0001561999999999,53.219,86.9775,57.7854,236.9925,0.003458,0.00055136,0.0,0 STARLINK-3203,1 49761U 21115AP  22097.83334491  .00055136  00000-0  34580-2 0  9994,2 49761  53.2190  86.9775 0001562  57.7854 236.9925 15.08813313 20620,6917.962,95.439,540.908,538.746,0.0
49761.0,STARLINK-3203,PAYLOAD,2022-04-07 22:00:00,15.08823418,0.000158,53.2191,86.6034,59.6,328.0702,0.0028933,0.00046039,0.0,0 STARLINK-3203,1 49761U 21115AP  22097.91667824  .00046039  00000-0  28933-2 0  9999,2 49761  53.2191  86.6034 0001580  59.6000 328.0702 15.08823418  3590,6917.931,95.439,540.889,538.703,0.0
49761.0,STARLINK-3203,PAYLOAD,2022-04-08 14:00:03,15.08877488,0.0001638,53.2191,83.6119,52.5572,358.4435,-0.0038771,-0.00061528,0.0,0 STARLINK-3203,1 49761U 21115AP  22098.58336806 -.00061528  00000-0 -38771-2 0  9999,2 49761  53.2191  83.6119 0001638  52.5572 358.4435 15.08877488 20732,6917.766,95.435,540.764,538.498,0.0
49761.0,STARLINK-3203,PAYLOAD,2022-04-08 22:00:00,15.08839657,0.0001551,53.2194,82.1146,59.9917,2.4922,-0.00023487,-4.024e-05,0.0,0 STARLINK-3203,1 49761U 21115AP  22098.91667824 -.00004024  00000-0 -23487-3 0  9990,2 49761  53.2194  82.1146 0001551  59.9917   2.4922 15.08839657  3607,6917.880999999999,95.438,540.819,538.673,0.0
49761.0,STARLINK-3203,PAYLOAD,2022-04-09 06:00:00,15.08821027,0.0001754999999999,53.2194,80.6201,55.57,18.5046,-0.00018649,-3.253e-05,0.0,0 STARLINK-3203,1 49761U 21115AP  22099.25001157 -.00003253  00000-0 -18649-3 0  9996,2 49761  53.2194  80.6201 0001755  55.5700  18.5046 15.08821027 20831,6917.938,95.439,541.0169999999998,538.589,0.0
49761.0,STARLINK-3203,PAYLOAD,2022-04-09 14:00:01,15.08843481,0.0001685,53.2192,79.1232,55.8565,29.7873,-0.0015509,-0.00024888,0.0,0 STARLINK-3203,1 49761U 21115AP  22099.58334491 -.00024888  00000-0 -15509-2 0  9990,2 49761  53.2192  79.1232 0001685  55.8565  29.7873 15.08843481  3628,6917.87,95.437,540.9,538.569,0.0
49761.0,STARLINK-3203,PAYLOAD,2022-04-09 22:00:00,15.08831475,0.0001602,53.2194,77.6259,63.6975,33.5387,0.0021737,0.00034468,0.0,0 STARLINK-3203,1 49761U 21115AP  22099.91667824  .00034468  00000-0  21737-2 0  9999,2 49761  53.2194  77.6259 0001602  63.6975  33.5387 15.08831475 20939,6917.906,95.438,540.88,538.663,0.0
49761.0,STARLINK-3203,PAYLOAD,2022-04-10 14:00:01,15.08882975,0.0001616,53.2189,74.6343,58.1015,62.3402,-0.0046588,-0.00073761,0.0,0 STARLINK-3203,1 49761U 21115AP  22100.58334491 -.00073761  00000-0 -46588-2 0  9998,2 49761  53.2189  74.6343 0001616  58.1015  62.3402 15.08882975 21034,6917.749,95.435,540.732,538.496,0.0
49761.0,STARLINK-3203,PAYLOAD,2022-04-10 22:00:00,15.08844923,0.000156,53.2191,73.1371,65.9223,66.1403,-0.00064883,-0.00010601,0.0,0 STARLINK-3203,1 49761U 21115AP  22100.91667824 -.00010601  00000-0 -64883-3 0  9997,2 49761  53.2191  73.1371 0001560  65.9223  66.1403 15.08844923 21086,6917.865,95.437,540.81,538.651,0.0
49761.0,STARLINK-3203,PAYLOAD,2022-04-11 14:00:01,15.088549800000004,0.0001623,53.2184,70.1454,60.6569,94.5638,-0.0034521,-0.00054833,0.0,0 STARLINK-3203,1 49761U 21115AP  22101.58334491 -.00054833  00000-0 -34521-2 0  9992,2 49761  53.2184  70.1454 0001623  60.6569  94.5638 15.08854980  3610,6917.835,95.437,540.822,538.577,0.0
49761.0,STARLINK-3203,PAYLOAD,2022-04-11 22:00:00,15.08817302,0.0001548,53.2187,68.6483,66.4416,100.3678,0.00065317,0.00010116,0.0,0 STARLINK-3203,1 49761U 21115AP  22101.91667824  .00010116  00000-0  65317-3 0  9990,2 49761  53.2187  68.6483 0001548  66.4416 100.3678 15.08817302  3604,6917.95,95.439,540.886,538.744,0.0
49761.0,STARLINK-3203,PAYLOAD,2022-04-12 06:00:02,15.08807985,0.0001672,53.2185,67.1538,57.9692,120.4764,0.0013177999999999,0.00020729,0.0,0 STARLINK-3203,1 49761U 21115AP  22102.25002315  .00020729  00000-0  13178-2 0  9994,2 49761  53.2185  67.1538 0001672  57.9692 120.4764 15.08807985 21285,6917.978,95.44,541.0,538.687,0.0
49761.0,STARLINK-3203,PAYLOAD,2022-04-12 14:00:01,15.08838791,0.0001585,53.2183,65.6563,60.2021,129.7437,-0.0014299,-0.00022972,0.0,0 STARLINK-3203,1 49761U 21115AP  22102.58334491 -.00022972  00000-0 -14299-2 0  9992,2 49761  53.2183  65.6563 0001585  60.2021 129.7437 15.08838791  3615,6917.884,95.438,540.846,538.653,0.0
49761.0,STARLINK-3203,PAYLOAD,2022-04-12 22:00:00,15.08836069,0.000161,53.2186,64.1594,66.3998,135.1237,0.00078569,0.00012237,0.0,0 STARLINK-3203,1 49761U 21115AP  22102.91667824  .00012237  00000-0  78569-3 0  9990,2 49761  53.2186  64.1594 0001610  66.3998 135.1237 15.08836069  3586,6917.892,95.438,540.871,538.644,0.0
49761.0,STARLINK-3203,PAYLOAD,2022-04-13 14:00:03,15.08864232,0.0001634,53.2186,61.1669,60.5165,164.328,-0.00099649,-0.00016123,0.0,0 STARLINK-3203,1 49761U 21115AP  22103.58336806 -.00016123  00000-0 -99649-3 0  9999,2 49761  53.2186  61.1669 0001634  60.5165 164.3280 15.08864232 21499,6917.806,95.436,540.802,538.5409999999998,0.0
